STARLINK-30531
1 57998U 23153H   26061.16668981  .01161561  00000+0  54247-1 0  9995
2 57998  43.0004 109.0365 0001195 259.6023  31.2248 15.16204860  5826
